[{"CCSDS_OMM_VERS":"2.0","COMMENT":"GENERATED VIA SPACE-TRACK.ORG API","CREATION_DATE":"2020-06-23T06:16:09","ORIGINATOR":"18 SPCS","OBJECT_NAME":"ONEWEB-0007","OBJECT_ID":"2019-010D","CENTER_NAME":"EARTH","REF_FRAME":"TEME","TIME_SYSTEM":"UTC","MEAN_ELEMENT_THEORY":"SGP4","EPOCH":"2020-06-23T02:00:01.999872","MEAN_MOTION":"13.21837835","ECCENTRICITY":"0.00017410","INCLINATION":"87.9188","RA_OF_ASC_NODE":"333.2512","ARG_OF_PERICENTER":"90.6545","MEAN_ANOMALY":"191.1932","EPHEMERIS_TYPE":"0","CLASSIFICATION_TYPE":"U","NORAD_CAT_ID":"44060","ELEMENT_SET_NO":"999","REV_AT_EPOCH":"6379","BSTAR":"-0.10897000000000","MEAN_MOTION_DOT":"-0.00044778","MEAN_MOTION_DDOT":"0.0000000000000","SEMIMAJOR_AXIS":"7555.845","PERIOD":"108.939","APOAPSIS":"1179.025","PERIAPSIS":"1176.394","OBJECT_TYPE":"PAYLOAD","RCS_SIZE":"LARGE","COUNTRY_CODE":"UK","LAUNCH_DATE":"2019-02-27","SITE":"FRGUI","DECAY_DATE":null,"FILE":"2771104","GP_ID":"156215968","TLE_LINE0":"0 ONEWEB-0007","TLE_LINE1":"1 44060U 19010D   20175.08335648 -.00044778  00000-0 -10897+0 0  9993","TLE_LINE2":"2 44060  87.9188 333.2512 0001741  90.6545 191.1932 13.21837835 63790"},{"CCSDS_OMM_VERS":"2.0","COMMENT":"GENERATED VIA SPACE-TRACK.ORG API","CREATION_DATE":"2020-06-23T14:16:09","ORIGINATOR":"18 SPCS","OBJECT_NAME":"ONEWEB-0007","OBJECT_ID":"2019-010D","CENTER_NAME":"EARTH","REF_FRAME":"TEME","TIME_SYSTEM":"UTC","MEAN_ELEMENT_THEORY":"SGP4","EPOCH":"2020-06-23T14:00:01.999872","MEAN_MOTION":"13.21838294","ECCENTRICITY":"0.00016580","INCLINATION":"87.9189","RA_OF_ASC_NODE":"333.1510","ARG_OF_PERICENTER":"91.7276","MEAN_ANOMALY":"48.0221","EPHEMERIS_TYPE":"0","CLASSIFICATION_TYPE":"U","NORAD_CAT_ID":"44060","ELEMENT_SET_NO":"999","REV_AT_EPOCH":"6386","BSTAR":"-0.11183000000000","MEAN_MOTION_DOT":"-0.00045948","MEAN_MOTION_DDOT":"0.0000000000000","SEMIMAJOR_AXIS":"7555.843","PERIOD":"108.939","APOAPSIS":"1178.961","PERIAPSIS":"1176.455","OBJECT_TYPE":"PAYLOAD","RCS_SIZE":"LARGE","COUNTRY_CODE":"UK","LAUNCH_DATE":"2019-02-27","SITE":"FRGUI","DECAY_DATE":null,"FILE":"2771270","GP_ID":"156219056","TLE_LINE0":"0 ONEWEB-0007","TLE_LINE1":"1 44060U 19010D   20175.58335648 -.00045948  00000-0 -11183+0 0  9997","TLE_LINE2":"2 44060  87.9189 333.1510 0001658  91.7276  48.0221 13.21838294 63867"},{"CCSDS_OMM_VERS":"2.0","COMMENT":"GENERATED VIA SPACE-TRACK.ORG API","CREATION_DATE":"2020-06-24T02:34:59","ORIGINATOR":"18 SPCS","OBJECT_NAME":"ONEWEB-0007","OBJECT_ID":"2019-010D","CENTER_NAME":"EARTH","REF_FRAME":"TEME","TIME_SYSTEM":"UTC","MEAN_ELEMENT_THEORY":"SGP4","EPOCH":"2020-06-23T22:00:00.999936","MEAN_MOTION":"13.21810983","ECCENTRICITY":"0.00016800","INCLINATION":"87.9189","RA_OF_ASC_NODE":"333.0840","ARG_OF_PERICENTER":"91.2403","MEAN_ANOMALY":"193.7274","EPHEMERIS_TYPE":"0","CLASSIFICATION_TYPE":"U","NORAD_CAT_ID":"44060","ELEMENT_SET_NO":"999","REV_AT_EPOCH":"170","BSTAR":"0.04022300000000","MEAN_MOTION_DOT":"0.00016652","MEAN_MOTION_DDOT":"0.0000000000000","SEMIMAJOR_AXIS":"7555.947","PERIOD":"108.941","APOAPSIS":"1179.081","PERIAPSIS":"1176.543","OBJECT_TYPE":"PAYLOAD","RCS_SIZE":"LARGE","COUNTRY_CODE":"UK","LAUNCH_DATE":"2019-02-27","SITE":"FRGUI","DECAY_DATE":null,"FILE":"2771670","GP_ID":"156268438","TLE_LINE0":"0 ONEWEB-0007","TLE_LINE1":"1 44060U 19010D   20175.91667824 +.00016652 +00000-0 +40223-1 0  9995","TLE_LINE2":"2 44060 087.9189 333.0840 0001680 091.2403 193.7274 13.21810983001700"},{"CCSDS_OMM_VERS":"2.0","COMMENT":"GENERATED VIA SPACE-TRACK.ORG API","CREATION_DATE":"2020-06-24T06:16:09","ORIGINATOR":"18 SPCS","OBJECT_NAME":"ONEWEB-0007","OBJECT_ID":"2019-010D","CENTER_NAME":"EARTH","REF_FRAME":"TEME","TIME_SYSTEM":"UTC","MEAN_ELEMENT_THEORY":"SGP4","EPOCH":"2020-06-24T06:00:00.999648","MEAN_MOTION":"13.21795400","ECCENTRICITY":"0.00017090","INCLINATION":"87.9189","RA_OF_ASC_NODE":"333.0183","ARG_OF_PERICENTER":"93.0251","MEAN_ANOMALY":"337.2188","EPHEMERIS_TYPE":"0","CLASSIFICATION_TYPE":"U","NORAD_CAT_ID":"44060","ELEMENT_SET_NO":"999","REV_AT_EPOCH":"6395","BSTAR":"0.07193200000000","MEAN_MOTION_DOT":"0.00029805","MEAN_MOTION_DDOT":"0.0000000000000","SEMIMAJOR_AXIS":"7556.006","PERIOD":"108.942","APOAPSIS":"1179.163","PERIAPSIS":"1176.580","OBJECT_TYPE":"PAYLOAD","RCS_SIZE":"LARGE","COUNTRY_CODE":"UK","LAUNCH_DATE":"2019-02-27","SITE":"FRGUI","DECAY_DATE":null,"FILE":"2771703","GP_ID":"156268971","TLE_LINE0":"0 ONEWEB-0007","TLE_LINE1":"1 44060U 19010D   20176.25001157  .00029805  00000-0  71932-1 0  9999","TLE_LINE2":"2 44060  87.9189 333.0183 0001709  93.0251 337.2188 13.21795400 63953"},{"CCSDS_OMM_VERS":"2.0","COMMENT":"GENERATED VIA SPACE-TRACK.ORG API","CREATION_DATE":"2020-06-24T19:19:02","ORIGINATOR":"18 SPCS","OBJECT_NAME":"ONEWEB-0007","OBJECT_ID":"2019-010D","CENTER_NAME":"EARTH","REF_FRAME":"TEME","TIME_SYSTEM":"UTC","MEAN_ELEMENT_THEORY":"SGP4","EPOCH":"2020-06-24T12:00:00.999648","MEAN_MOTION":"13.21832995","ECCENTRICITY":"0.00016800","INCLINATION":"87.9188","RA_OF_ASC_NODE":"332.9681","ARG_OF_PERICENTER":"92.9447","MEAN_ANOMALY":"86.2326","EPHEMERIS_TYPE":"0","CLASSIFICATION_TYPE":"U","NORAD_CAT_ID":"44060","ELEMENT_SET_NO":"999","REV_AT_EPOCH":"172","BSTAR":"-0.07303600000000","MEAN_MOTION_DOT":"-0.00030054","MEAN_MOTION_DDOT":"0.0000000000000","SEMIMAJOR_AXIS":"7555.863","PERIOD":"108.939","APOAPSIS":"1178.998","PERIAPSIS":"1176.459","OBJECT_TYPE":"PAYLOAD","RCS_SIZE":"LARGE","COUNTRY_CODE":"UK","LAUNCH_DATE":"2019-02-27","SITE":"FRGUI","DECAY_DATE":null,"FILE":"2772204","GP_ID":"156299891","TLE_LINE0":"0 ONEWEB-0007","TLE_LINE1":"1 44060U 19010D   20176.50001157 -.00030054 +00000-0 -73036-1 0  9994","TLE_LINE2":"2 44060 087.9188 332.9681 0001680 092.9447 086.2326 13.21832995001729"},{"CCSDS_OMM_VERS":"2.0","COMMENT":"GENERATED VIA SPACE-TRACK.ORG API","CREATION_DATE":"2020-06-25T02:00:04","ORIGINATOR":"18 SPCS","OBJECT_NAME":"ONEWEB-0007","OBJECT_ID":"2019-010D","CENTER_NAME":"EARTH","REF_FRAME":"TEME","TIME_SYSTEM":"UTC","MEAN_ELEMENT_THEORY":"SGP4","EPOCH":"2020-06-24T22:00:01.999584","MEAN_MOTION":"13.21810262","ECCENTRICITY":"0.00016730","INCLINATION":"87.9188","RA_OF_ASC_NODE":"332.8843","ARG_OF_PERICENTER":"91.5974","MEAN_ANOMALY":"269.2233","EPHEMERIS_TYPE":"0","CLASSIFICATION_TYPE":"U","NORAD_CAT_ID":"44060","ELEMENT_SET_NO":"999","REV_AT_EPOCH":"6404","BSTAR":"0.03682300000000","MEAN_MOTION_DOT":"0.00015243","MEAN_MOTION_DDOT":"0.0000000000000","SEMIMAJOR_AXIS":"7555.950","PERIOD":"108.941","APOAPSIS":"1179.079","PERIAPSIS":"1176.551","OBJECT_TYPE":"PAYLOAD","RCS_SIZE":"LARGE","COUNTRY_CODE":"UK","LAUNCH_DATE":"2019-02-27","SITE":"FRGUI","DECAY_DATE":null,"FILE":"2772426","GP_ID":"156324510","TLE_LINE0":"0 ONEWEB-0007","TLE_LINE1":"1 44060U 19010D   20176.91668981 +.00015243 +00000-0 +36823-1 0  9997","TLE_LINE2":"2 44060 087.9188 332.8843 0001673 091.5974 269.2233 13.21810262064047"},{"CCSDS_OMM_VERS":"2.0","COMMENT":"GENERATED VIA SPACE-TRACK.ORG API","CREATION_DATE":"2020-06-25T18:00:38","ORIGINATOR":"18 SPCS","OBJECT_NAME":"ONEWEB-0007","OBJECT_ID":"2019-010D","CENTER_NAME":"EARTH","REF_FRAME":"TEME","TIME_SYSTEM":"UTC","MEAN_ELEMENT_THEORY":"SGP4","EPOCH":"2020-06-25T14:00:01.000224","MEAN_MOTION":"13.21833905","ECCENTRICITY":"0.00016360","INCLINATION":"87.9188","RA_OF_ASC_NODE":"332.7514","ARG_OF_PERICENTER":"93.2093","MEAN_ANOMALY":"198.0809","EPHEMERIS_TYPE":"0","CLASSIFICATION_TYPE":"U","NORAD_CAT_ID":"44060","ELEMENT_SET_NO":"999","REV_AT_EPOCH":"170","BSTAR":"-0.10591000000000","MEAN_MOTION_DOT":"-0.00043524","MEAN_MOTION_DDOT":"0.0000000000000","SEMIMAJOR_AXIS":"7555.860","PERIOD":"108.939","APOAPSIS":"1178.961","PERIAPSIS":"1176.489","OBJECT_TYPE":"PAYLOAD","RCS_SIZE":"LARGE","COUNTRY_CODE":"UK","LAUNCH_DATE":"2019-02-27","SITE":"FRGUI","DECAY_DATE":null,"FILE":"2772813","GP_ID":"156352321","TLE_LINE0":"0 ONEWEB-0007","TLE_LINE1":"1 44060U 19010D   20177.58334491 -.00043524 +00000-0 -10591+0 0  9994","TLE_LINE2":"2 44060 087.9188 332.7514 0001636 093.2093 198.0809 13.21833905001702"},{"CCSDS_OMM_VERS":"2.0","COMMENT":"GENERATED VIA SPACE-TRACK.ORG API","CREATION_DATE":"2020-06-25T22:06:09","ORIGINATOR":"18 SPCS","OBJECT_NAME":"ONEWEB-0007","OBJECT_ID":"2019-010D","CENTER_NAME":"EARTH","REF_FRAME":"TEME","TIME_SYSTEM":"UTC","MEAN_ELEMENT_THEORY":"SGP4","EPOCH":"2020-06-25T20:00:01.000224","MEAN_MOTION":"13.21791846","ECCENTRICITY":"0.00016770","INCLINATION":"87.9188","RA_OF_ASC_NODE":"332.7011","ARG_OF_PERICENTER":"92.4484","MEAN_ANOMALY":"307.8015","EPHEMERIS_TYPE":"0","CLASSIFICATION_TYPE":"U","NORAD_CAT_ID":"44060","ELEMENT_SET_NO":"999","REV_AT_EPOCH":"6416","BSTAR":"0.10581000000000","MEAN_MOTION_DOT":"0.00043903","MEAN_MOTION_DDOT":"0.0000000000000","SEMIMAJOR_AXIS":"7556.020","PERIOD":"108.943","APOAPSIS":"1179.152","PERIAPSIS":"1176.618","OBJECT_TYPE":"PAYLOAD","RCS_SIZE":"LARGE","COUNTRY_CODE":"UK","LAUNCH_DATE":"2019-02-27","SITE":"FRGUI","DECAY_DATE":null,"FILE":"2772975","GP_ID":"156355631","TLE_LINE0":"0 ONEWEB-0007","TLE_LINE1":"1 44060U 19010D   20177.83334491  .00043903  00000-0  10581+0 0  9990","TLE_LINE2":"2 44060  87.9188 332.7011 0001677  92.4484 307.8015 13.21791846 64169"}]